48976,ONEWEB-0258,2021,109.37,148.0,+,87.92,Active,1,LEO,Russia,UK,Commercial,Communications,Soyuz,1 48976U 21060K   24259.20994806  .00000094  00000+0  21211-3 0  9995,2 48976  87.9170 356.2450 0001898  99.8999 260.2346 13.16592977156669,13.16592977,0.0001898,LEO
48977,ONEWEB-0259,2021,109.37,148.0,+,87.92,Active,1,LEO,Russia,UK,Commercial,Communications,Soyuz,1 48977U 21060L   24259.20361213  .00000127  00000+0  29838-3 0  9996,2 48977  87.9171 356.2309 0002058 104.2971 255.8388 13.16592311156707,13.16592311,0.0002058,LEO
48978,ONEWEB-0260,2021,109.37,148.0,+,87.92,Active,1,LEO,Russia,UK,Commercial,Communications,Soyuz,1 48978U 21060M   24258.96691904  .00000136  00000+0  32198-3 0  9995,2 48978  87.9172 356.3068 0001224 104.6002 255.5265 13.16594931156649,13.16594931,0.0001224,LEO
48979,ONEWEB-0261,2021,109.37,148.0,+,87.92,Active,1,LEO,Russia,UK,Commercial,Communications,Soyuz,1 48979U 21060N   24258.78404969 -.00000028  00000+0 -10592-3 0  9995,2 48979  87.9176 356.3386 0001892 119.3778 240.7542 13.16592474155396,13.16592474,0.0001892,LEO
48980,ONEWEB-0262,2021,109.37,148.0,+,87.92,Active,1,LEO,Russia,UK,Commercial,Communications,Soyuz,1 48980U 21060P   24258.84104170 -.00000049  00000+0 -16056-3 0  9999,2 48980  87.9173 356.2889 0002217 109.2117 250.9254 13.16591461155364,13.16591461,0.0002217,LEO
48981,ONEWEB-0263,2021,109.37,148.0,+,87.92,Active,1,LEO,Russia,UK,Commercial,Communications,Soyuz,1 48981U 21060Q   24258.79671841  .00000146  00000+0  34831-3 0  9995,2 48981  87.9176 356.3170 0002034 114.3125 245.8218 13.16591643155326,13.16591643,0.0002034,LEO
48982,ONEWEB-0264,2021,109.37,148.0,+,87.92,Active,1,LEO,Russia,UK,Commercial,Communications,Soyuz,1 48982U 21060R   24258.83392564 -.00000039  00000+0 -13457-3 0  9997,2 48982  87.9174 356.3205 0001840 102.7303 257.4034 13.16592587155331,13.16592587,0.000184,LEO
48984,ONEWEB-0266,2021,109.37,148.0,+,87.92,Active,1,LEO,Russia,UK,Commercial,Communications,Soyuz,1 48984U 21060T   24259.23528390 -.00000003  00000+0 -40858-4 0  9999,2 48984  87.9172 356.2159 0001960  98.7890 261.3463 13.16592392156678,13.16592392,0.000196,LEO
